ORBCOMM FM33            
1 25983U 99065D   24182.81325667  .00001536  00000+0  55084-3 0  9990
2 25983  45.0278 226.9421 0006216  94.2493 265.9066 14.37888129285456
ORBCOMM FM36            
1 25984U 99065E   24182.78881112  .00002413  00000+0  87423-3 0  9996
2 25984  45.0403 313.4309 0003178 301.0458  59.0077 14.35810265283870
ORBCOMM FM35            
1 25985U 99065F   24183.05575066  .00001672  00000+0  62673-3 0  9992
2 25985  45.0414 314.9985 0002315 105.7520 254.3583 14.35327681284496
ORBCOMM FM34            
1 25986U 99065G   24182.67921901  .00001876  00000+0  69782-3 0  9997
2 25986  45.0408 317.3191 0002169  10.8575 349.2319 14.35302042284360
ORBCOMM FM38            
1 33060U 08031A   24183.22580014  .00002973  00000+0  43745-3 0  9990
2 33060  48.4386 183.7162 0006113 333.0379  27.0217 14.77876058862765
ORBCOMM FM41            
1 33061U 08031B   24182.77204700  .00002849  00000+0  42303-3 0  9996
2 33061  48.4423 192.6095 0005365 318.1033 212.1095 14.77597140862203
ORBCOMM FM29            
1 33062U 08031C   24183.15090765  .00002801  00000+0  41691-3 0  9991
2 33062  48.4377 198.8506 0007246 317.8456 119.9133 14.77544870862560
ORBCOMM FM39            
1 33063U 08031D   24182.79915337  .00002532  00000+0  38886-3 0  9995
2 33063  48.4394 221.4308 0008208 292.7835  67.2211 14.76504100861814
